{
    "links": {
        "self": "http://www.neowsapp.com/rest/v1/neo/3767003?api_key=iIulBulltgU6a56xZRHN4H3l9WmuAYTsLGpBGhQ2"
    },
    "id": "3767003",
    "neo_reference_id": "3767003",
    "name": "(2017 BW6)",
    "designation": "2017 BW6",
    "nasa_jpl_url": "http://ssd.jpl.nasa.gov/sbdb.cgi?sstr=3767003",
    "absolute_magnitude_h": 25.3,
    "estimated_diameter": {
        "kilometers": {
            "estimated_diameter_min": 0.0231502122,
            "estimated_diameter_max": 0.0517654482
        },
        "meters": {
            "estimated_diameter_min": 23.150212221,
            "estimated_diameter_max": 51.7654482198
        },
        "miles": {
            "estimated_diameter_min": 0.0143848705,
            "estimated_diameter_max": 0.0321655483
        },
        "feet": {
            "estimated_diameter_min": 75.9521422633,
            "estimated_diameter_max": 169.8341531374
        }
    },
    "is_potentially_hazardous_asteroid": false,
    "close_approach_data": [
        {
            "close_approach_date": "2017-01-14",
            "close_approach_date_full": "2017-Jan-14 02:49",
            "epoch_date_close_approach": 1484362140000,
            "relative_velocity": {
                "kilometers_per_second": "9.9804501492",
                "kilometers_per_hour": "35929.6205371024",
                "miles_per_hour": "22325.2689387346"
            },
            "miss_distance": {
                "astronomical": "0.040938747",
                "lunar": "15.925172583",
                "kilometers": "6124349.35166889",
                "miles": "3805494.224015082"
            },
            "orbiting_body": "Earth"
        }
    ],
    "orbital_data": {
        "orbit_id": "3",
        "orbit_determination_date": "2017-04-06 08:20:48",
        "first_observation_date": "2017-01-26",
        "last_observation_date": "2017-02-02",
        "data_arc_in_days": 7,
        "observations_used": 11,
        "orbit_uncertainty": "8",
        "minimum_orbit_intersection": ".0157447",
        "jupiter_tisserand_invariant": "3.845",
        "epoch_osculation": "2457782.5",
        "eccentricity": ".4900602930884469",
        "semi_major_axis": "1.851332609131567",
        "inclination": "5.680727272455198",
        "ascending_node_longitude": "295.6911613277321",
        "orbital_period": "920.0789674989558",
        "perihelion_distance": ".9440680080963524",
        "perihelion_argument": "140.7638225154772",
        "aphelion_distance": "2.758597210166783",
        "perihelion_time": "2457739.406547827013",
        "mean_anomaly": "16.86120792919106",
        "mean_motion": ".3912707633982608",
        "equinox": "J2000",
        "orbit_class": {
            "orbit_class_type": "APO",
            "orbit_class_description": "Near-Earth asteroid orbits which cross the Earth’s orbit similar to that of 1862 Apollo",
            "orbit_class_range": "a (semi-major axis) > 1.0 AU; q (perihelion) < 1.017 AU"
        }
    },
    "is_sentry_object": false
}